{
  "norad_id": 47135,
  "name": "STARLINK-1845",
  "history": [
    {
      "epoch": "2026-04-11T18:22:25.370688Z",
      "apogee_km": 386.6123483610836,
      "perigee_km": 375.9932684221003,
      "latitude_deg": -7.127307770675488e-05,
      "longitude_deg": 1.1257754201831982,
      "height_km": 378.02492164547,
      "semi_major_axis_km": 6759.439808391591,
      "eccentricity": 0.0007855,
      "inclination_deg": 53.0489,
      "raan_deg": 116.7119,
      "arg_perigee_deg": 38.2335,
      "mean_anomaly_deg": 321.9233,
      "mean_motion_rev_day": 15.62200255
    },
    {
      "epoch": "2026-04-13T07:13:12.423072Z",
      "apogee_km": 385.77199588306485,
      "perigee_km": 375.24135317378295,
      "latitude_deg": -1.5487874171670417e-05,
      "longitude_deg": 159.41253683096988,
      "height_km": 377.5332344512067,
      "semi_major_axis_km": 6758.643674528424,
      "eccentricity": 0.00077905,
      "inclination_deg": 53.0486,
      "raan_deg": 109.2079,
      "arg_perigee_deg": 42.7664,
      "mean_anomaly_deg": 317.3954,
      "mean_motion_rev_day": 15.62476292
    },
    {
      "epoch": "2026-04-14T16:59:25.321344Z",
      "apogee_km": 385.09647178583145,
      "perigee_km": 374.55675173692816,
      "latitude_deg": 3.531796478953244e-05,
      "longitude_deg": 4.590838647892347,
      "height_km": 377.1803254373355,
      "semi_major_axis_km": 6757.963611761379,
      "eccentricity": 0.0007798,
      "inclination_deg": 53.0484,
      "raan_deg": 102.3268,
      "arg_perigee_deg": 47.8368,
      "mean_anomaly_deg": 312.3307,
      "mean_motion_rev_day": 15.62712149
    },
    {
      "epoch": "2026-04-15T06:48:14.766336Z",
      "apogee_km": 384.8400253089176,
      "perigee_km": 374.35742565155215,
      "latitude_deg": -7.3806548783975e-05,
      "longitude_deg": 154.00162730362104,
      "height_km": 377.1401306151334,
      "semi_major_axis_km": 6757.735725480235,
      "eccentricity": 0.0007756,
      "inclination_deg": 53.0489,
      "raan_deg": 99.511,
      "arg_perigee_deg": 50.2796,
      "mean_anomaly_deg": 309.8899,
      "mean_motion_rev_day": 15.62791197
    },
    {
      "epoch": "2026-04-16T16:34:04.871424Z",
      "apogee_km": 384.14835926575506,
      "perigee_km": 373.90179868919313,
      "latitude_deg": 2.5460839829748347e-06,
      "longitude_deg": -0.726618888207722,
      "height_km": 376.9581022522417,
      "semi_major_axis_km": 6757.162078977474,
      "eccentricity": 0.0007582,
      "inclination_deg": 53.0481,
      "raan_deg": 92.6281,
      "arg_perigee_deg": 54.7442,
      "mean_anomaly_deg": 305.428,
      "mean_motion_rev_day": 15.6299021
    },
    {
      "epoch": "2026-04-17T07:54:49.786560Z",
      "apogee_km": 383.9337225159861,
      "perigee_km": 373.5772982274884,
      "latitude_deg": -4.545246830564273e-05,
      "longitude_deg": 125.32706976255724,
      "height_km": 376.82953678896496,
      "semi_major_axis_km": 6756.8925103717365,
      "eccentricity": 0.00076636,
      "inclination_deg": 53.0484,
      "raan_deg": 89.4992,
      "arg_perigee_deg": 57.0577,
      "mean_anomaly_deg": 303.1172,
      "mean_motion_rev_day": 15.63083745
    },
    {
      "epoch": "2026-04-18T05:23:47.179104Z",
      "apogee_km": 383.48044059977656,
      "perigee_km": 373.1646781445261,
      "latitude_deg": -4.926445697696551e-05,
      "longitude_deg": 157.8247726814363,
      "height_km": 376.7089112016177,
      "semi_major_axis_km": 6756.459559372151,
      "eccentricity": 0.0007634,
      "inclination_deg": 53.0484,
      "raan_deg": 85.1183,
      "arg_perigee_deg": 60.9681,
      "mean_anomaly_deg": 299.2096,
      "mean_motion_rev_day": 15.6323399
    },
    {
      "epoch": "2026-04-19T21:17:15.534240Z",
      "apogee_km": 382.7419380199126,
      "perigee_km": 372.5731160977839,
      "latitude_deg": -2.274972765661983e-05,
      "longitude_deg": -90.32012877774108,
      "height_km": 376.6363480622902,
      "semi_major_axis_km": 6755.794527058848,
      "eccentricity": 0.0007526,
      "inclination_deg": 53.0493,
      "raan_deg": 76.9798,
      "arg_perigee_deg": 67.933,
      "mean_anomaly_deg": 292.2482,
      "mean_motion_rev_day": 15.6346482
    },
    {
      "epoch": "2026-04-20T08:01:34.656096Z",
      "apogee_km": 382.66250475566903,
      "perigee_km": 372.07568093732516,
      "latitude_deg": 1.3678371076075202e-05,
      "longitude_deg": 105.96880271156115,
      "height_km": 376.49539861941435,
      "semi_major_axis_km": 6755.506092846496,
      "eccentricity": 0.00078357,
      "inclination_deg": 53.0478,
      "raan_deg": 74.7894,
      "arg_perigee_deg": 70.5612,
      "mean_anomaly_deg": 289.6248,
      "mean_motion_rev_day": 15.63564952
    },
    {
      "epoch": "2026-04-21T14:42:15.323040Z",
      "apogee_km": 381.5035381388625,
      "perigee_km": 371.431072198995,
      "latitude_deg": 4.7609853204062046e-05,
      "longitude_deg": -1.720319757668616,
      "height_km": 376.02449581081004,
      "semi_major_axis_km": 6754.6043051689285,
      "eccentricity": 0.0007456,
      "inclination_deg": 53.049,
      "raan_deg": 68.5296,
      "arg_perigee_deg": 74.6705,
      "mean_anomaly_deg": 285.5133,
      "mean_motion_rev_day": 15.63878083
    },
    {
      "epoch": "2026-04-22T13:42:32.480928Z",
      "apogee_km": 380.88476701066793,
      "perigee_km": 370.91310835227523,
      "latitude_deg": 2.2969173595699308e-07,
      "longitude_deg": 7.566579027926005,
      "height_km": 375.8357858475597,
      "semi_major_axis_km": 6754.035937681471,
      "eccentricity": 0.0007382,
      "inclination_deg": 53.05,
      "raan_deg": 63.8328,
      "arg_perigee_deg": 78.9942,
      "mean_anomaly_deg": 281.1902,
      "mean_motion_rev_day": 15.64075493
    },
    {
      "epoch": "2026-04-23T03:30:37.493856Z",
      "apogee_km": 380.39217705417377,
      "perigee_km": 370.6419266994799,
      "latitude_deg": 1.2210447402650587e-05,
      "longitude_deg": 157.1600964391204,
      "height_km": 375.68494864079213,
      "semi_major_axis_km": 6753.654051876827,
      "eccentricity": 0.00072185,
      "inclination_deg": 53.0489,
      "raan_deg": 61.014,
      "arg_perigee_deg": 81.4958,
      "mean_anomaly_deg": 278.6874,
      "mean_motion_rev_day": 15.64208156
    },
    {
      "epoch": "2026-04-24T02:30:36.263232Z",
      "apogee_km": 379.6756995398018,
      "perigee_km": 370.03674713253986,
      "latitude_deg": -8.939897303025303e-07,
      "longitude_deg": 166.52205022893094,
      "height_km": 375.4254889212192,
      "semi_major_axis_km": 6752.993223336171,
      "eccentricity": 0.00071368,
      "inclination_deg": 53.0484,
      "raan_deg": 56.3154,
      "arg_perigee_deg": 86.1972,
      "mean_anomaly_deg": 273.9858,
      "mean_motion_rev_day": 15.64437765
    },
    {
      "epoch": "2026-04-25T19:54:09.670176Z",
      "apogee_km": 378.74006582449147,
      "perigee_km": 369.3612771487951,
      "latitude_deg": 4.698836934208831e-06,
      "longitude_deg": -104.52667625598198,
      "height_km": 375.0308811596604,
      "semi_major_axis_km": 6752.187671486643,
      "eccentricity": 0.0006945,
      "inclination_deg": 53.0481,
      "raan_deg": 47.8558,
      "arg_perigee_deg": 91.1102,
      "mean_anomaly_deg": 269.0708,
      "mean_motion_rev_day": 15.64717735
    },
    {
      "epoch": "2026-04-26T12:45:50.851584Z",
      "apogee_km": 378.28619986689046,
      "perigee_km": 368.96228765970227,
      "latitude_deg": -4.610495887460141e-05,
      "longitude_deg": -1.5865778774174366,
      "height_km": 374.9256325277528,
      "semi_major_axis_km": 6751.761243763296,
      "eccentricity": 0.00069048,
      "inclination_deg": 53.0487,
      "raan_deg": 44.41,
      "arg_perigee_deg": 95.0673,
      "mean_anomaly_deg": 265.1129,
      "mean_motion_rev_day": 15.64865974
    },
    {
      "epoch": "2026-04-27T19:25:02.434944Z",
      "apogee_km": 377.48076108870646,
      "perigee_km": 368.450486219308,
      "latitude_deg": 5.2351793956485064e-05,
      "longitude_deg": -108.91285022030087,
      "height_km": 374.5709365268392,
      "semi_major_axis_km": 6751.102623654007,
      "eccentricity": 0.0006688,
      "inclination_deg": 53.0486,
      "raan_deg": 38.1408,
      "arg_perigee_deg": 99.1124,
      "mean_anomaly_deg": 261.0648,
      "mean_motion_rev_day": 15.65094976
    },
    {
      "epoch": "2026-04-28T04:36:44.992224Z",
      "apogee_km": 377.2989314578226,
      "perigee_km": 368.25770061166986,
      "latitude_deg": 3.791060773188322e-05,
      "longitude_deg": 110.9007856811677,
      "height_km": 374.54428776618903,
      "semi_major_axis_km": 6750.915316034746,
      "eccentricity": 0.00066963,
      "inclination_deg": 53.049,
      "raan_deg": 36.2594,
      "arg_perigee_deg": 101.1681,
      "mean_anomaly_deg": 259.0087,
      "mean_motion_rev_day": 15.65160113
    }
  ]
}